[
    {
        "Altitude(m)": 605459.0671203503,
        "Argument of Periapsis(deg)": 0.0,
        "Eccentricity": 0.0,
        "Inclination(deg)": 60.0,
        "Latitude(deg)": 27.988338431620104,
        "Longitude(deg)": 92.79857871556426,
        "Mean Anomaly(deg)": 32.72730000000001,
        "RAAN(deg)": 175.0,
        "Satellite Name": "Test1 772",
        "Satellite Number": 772,
        "Semi-Major Axis(m)": 6980739.136638005,
        "Time(s)": 0
    },
    {
        "Altitude(m)": 605535.8586193346,
        "Argument of Periapsis(deg)": 0.00010418945913296404,
        "Eccentricity": 0.0,
        "Inclination(deg)": 60.0,
        "Latitude(deg)": 28.501467998583237,
        "Longitude(deg)": 93.15552407852493,
        "Mean Anomaly(deg)": 33.34740614546182,
        "RAAN(deg)": 174.99957995086024,
        "Satellite Name": "Test1 772",
        "Satellite Number": 772,
        "Semi-Major Axis(m)": 6980739.136638005,
        "Time(s)": 10
    },
    {
        "Altitude(m)": 605614.3407218392,
        "Argument of Periapsis(deg)": 0.0002083789182659281,
        "Eccentricity": 0.0,
        "Inclination(deg)": 60.0,
        "Latitude(deg)": 29.01338003692519,
        "Longitude(deg)": 93.51633430244377,
        "Mean Anomaly(deg)": 33.967512290923665,
        "RAAN(deg)": 174.9991599017205,
        "Satellite Name": "Test1 772",
        "Satellite Number": 772,
        "Semi-Major Axis(m)": 6980739.136638005,
        "Time(s)": 20
    },
    {
        "Altitude(m)": 605694.4557355249,
        "Argument of Periapsis(deg)": 0.00031256837739889213,
        "Eccentricity": 0.0,
        "Inclination(deg)": 60.0,
        "Latitude(deg)": 29.524037273566133,
        "Longitude(deg)": 93.88112114396343,
        "Mean Anomaly(deg)": 34.5876184363855,
        "RAAN(deg)": 174.99873985258077,
        "Satellite Name": "Test1 772",
        "Satellite Number": 772,
        "Semi-Major Axis(m)": 6980739.136638005,
        "Time(s)": 30
    },
    {
        "Altitude(m)": 605776.1453586972,
        "Argument of Periapsis(deg)": 0.0004167578365318562,
        "Eccentricity": 0.0,
        "Inclination(deg)": 60.0,
        "Latitude(deg)": 30.033401438945415,
        "Longitude(deg)": 94.24999936605815,
        "Mean Anomaly(deg)": 35.20772458184732,
        "RAAN(deg)": 174.99831980344103,
        "Satellite Name": "Test1 772",
        "Satellite Number": 772,
        "Semi-Major Axis(m)": 6980739.136638005,
        "Time(s)": 40
    },
    {
        "Altitude(m)": 605859.3507106727,
        "Argument of Periapsis(deg)": 0.0005209472956648203,
        "Eccentricity": 0.0,
        "Inclination(deg)": 60.0,
        "Latitude(deg)": 30.541433228286337,
        "Longitude(deg)": 94.62308579684918,
        "Mean Anomaly(deg)": 35.82783072730915,
        "RAAN(deg)": 174.99789975430127,
        "Satellite Name": "Test1 772",
        "Satellite Number": 772,
        "Semi-Major Axis(m)": 6980739.136638005,
        "Time(s)": 50
    },
    {
        "Altitude(m)": 605944.012362342,
        "Argument of Periapsis(deg)": 0.0006251367547977843,
        "Eccentricity": 0.0,
        "Inclination(deg)": 60.0,
        "Latitude(deg)": 31.04809226150377,
        "Longitude(deg)": 95.0004999014692,
        "Mean Anomaly(deg)": 36.447936872770974,
        "RAAN(deg)": 174.99747970516154,
        "Satellite Name": "Test1 772",
        "Satellite Number": 772,
        "Semi-Major Axis(m)": 6980739.136638005,
        "Time(s)": 60
    },
    {
        "Altitude(m)": 606030.0703669941,
        "Argument of Periapsis(deg)": 0.0007293262139307483,
        "Eccentricity": 0.0,
        "Inclination(deg)": 60.0,
        "Latitude(deg)": 31.55333704171271,
        "Longitude(deg)": 95.38236435393861,
        "Mean Anomaly(deg)": 37.06804301823281,
        "RAAN(deg)": 174.9970596560218,
        "Satellite Name": "Test1 772",
        "Satellite Number": 772,
        "Semi-Major Axis(m)": 6980739.136638005,
        "Time(s)": 70
    },
    {
        "Altitude(m)": 606117.464291286,
        "Argument of Periapsis(deg)": 0.0008335156730637124,
        "Eccentricity": 0.0,
        "Inclination(deg)": 60.0,
        "Latitude(deg)": 32.057124912298455,
        "Longitude(deg)": 95.76880409599399,
        "Mean Anomaly(deg)": 37.68814916369463,
        "RAAN(deg)": 174.99663960688207,
        "Satellite Name": "Test1 772",
        "Satellite Number": 772,
        "Semi-Major Axis(m)": 6980739.136638005,
        "Time(s)": 80
    },
    {
        "Altitude(m)": 606206.1332464818,
        "Argument of Periapsis(deg)": 0.0009377051321966765,
        "Eccentricity": 0.0,
        "Inclination(deg)": 60.0,
        "Latitude(deg)": 32.55941201250866,
        "Longitude(deg)": 96.15994690840937,
        "Mean Anomaly(deg)": 38.308255309156486,
        "RAAN(deg)": 174.9962195577423,
        "Satellite Name": "Test1 772",
        "Satellite Number": 772,
        "Semi-Major Axis(m)": 6980739.136638005,
        "Time(s)": 90
    },
    {
        "Altitude(m)": 606296.0159197669,
        "Argument of Periapsis(deg)": 0.0010418945913296407,
        "Eccentricity": 0.0,
        "Inclination(deg)": 60.0,
        "Latitude(deg)": 33.06015323152858,
        "Longitude(deg)": 96.5559239817044,
        "Mean Anomaly(deg)": 38.92836145461831,
        "RAAN(deg)": 174.9957995086026,
        "Satellite Name": "Test1 772",
        "Satellite Number": 772,
        "Semi-Major Axis(m)": 6980739.136638005,
        "Time(s)": 100
    },
    {
        "Altitude(m)": 606387.0506057945,
        "Argument of Periapsis(deg)": 0.0011460840504626045,
        "Eccentricity": 0.0,
        "Inclination(deg)": 60.0,
        "Latitude(deg)": 33.559302161002925,
        "Longitude(deg)": 96.9568689730991,
        "Mean Anomaly(deg)": 39.548467600080116,
        "RAAN(deg)": 174.99537945946284,
        "Satellite Name": "Test1 772",
        "Satellite Number": 772,
        "Semi-Major Axis(m)": 6980739.136638005,
        "Time(s)": 110
    },
    {
        "Altitude(m)": 606479.175238331,
        "Argument of Periapsis(deg)": 0.0012502735095955685,
        "Eccentricity": 0.0,
        "Inclination(deg)": 60.0,
        "Latitude(deg)": 34.05681104596786,
        "Longitude(deg)": 97.36291857517662,
        "Mean Anomaly(deg)": 40.16857374554196,
        "RAAN(deg)": 174.9949594103231,
        "Satellite Name": "Test1 772",
        "Satellite Number": 772,
        "Semi-Major Axis(m)": 6980739.136638005,
        "Time(s)": 120
    },
    {
        "Altitude(m)": 606572.3274220381,
        "Argument of Periapsis(deg)": 0.0013544629687285324,
        "Eccentricity": 0.0,
        "Inclination(deg)": 60.0,
        "Latitude(deg)": 34.55263073415988,
        "Longitude(deg)": 97.77421308304962,
        "Mean Anomaly(deg)": 40.788679891003795,
        "RAAN(deg)": 174.99453936118334,
        "Satellite Name": "Test1 772",
        "Satellite Number": 772,
        "Semi-Major Axis(m)": 6980739.136638005,
        "Time(s)": 130
    },
    {
        "Altitude(m)": 606666.4444643481,
        "Argument of Periapsis(deg)": 0.0014586524278614966,
        "Eccentricity": 0.0,
        "Inclination(deg)": 60.0,
        "Latitude(deg)": 35.04671062367122,
        "Longitude(deg)": 98.19089544679687,
        "Mean Anomaly(deg)": 41.40878603646562,
        "RAAN(deg)": 174.99411931204364,
        "Satellite Name": "Test1 772",
        "Satellite Number": 772,
        "Semi-Major Axis(m)": 6980739.136638005,
        "Time(s)": 140
    },
    {
        "Altitude(m)": 606761.4634074612,
        "Argument of Periapsis(deg)": 0.0015628418869944607,
        "Eccentricity": 0.0,
        "Inclination(deg)": 60.0,
        "Latitude(deg)": 35.53899860892241,
        "Longitude(deg)": 98.61311183451583,
        "Mean Anomaly(deg)": 42.02889218192745,
        "RAAN(deg)": 174.99369926290387,
        "Satellite Name": "Test1 772",
        "Satellite Number": 772,
        "Semi-Major Axis(m)": 6980739.136638005,
        "Time(s)": 150
    },
    {
        "Altitude(m)": 606857.3210603705,
        "Argument of Periapsis(deg)": 0.0016670313461274247,
        "Eccentricity": 0.0,
        "Inclination(deg)": 60.0,
        "Latitude(deg)": 36.02944102492875,
        "Longitude(deg)": 99.04101219267457,
        "Mean Anomaly(deg)": 42.64899832738928,
        "RAAN(deg)": 174.99327921376414,
        "Satellite Name": "Test1 772",
        "Satellite Number": 772,
        "Semi-Major Axis(m)": 6980739.136638005,
        "Time(s)": 160
    },
    {
        "Altitude(m)": 606953.9540309922,
        "Argument of Periapsis(deg)": 0.0017712208052603888,
        "Eccentricity": 0.0,
        "Inclination(deg)": 60.0,
        "Latitude(deg)": 36.517982589839946,
        "Longitude(deg)": 99.47474929039574,
        "Mean Anomaly(deg)": 43.269104472851105,
        "RAAN(deg)": 174.99285916462438,
        "Satellite Name": "Test1 772",
        "Satellite Number": 772,
        "Semi-Major Axis(m)": 6980739.136638005,
        "Time(s)": 170
    },
    {
        "Altitude(m)": 607051.2987583249,
        "Argument of Periapsis(deg)": 0.001875410264393353,
        "Eccentricity": 0.0,
        "Inclination(deg)": 60.0,
        "Latitude(deg)": 37.004566345737615,
        "Longitude(deg)": 99.91447927288398,
        "Mean Anomaly(deg)": 43.88921061831296,
        "RAAN(deg)": 174.99243911548467,
        "Satellite Name": "Test1 772",
        "Satellite Number": 772,
        "Semi-Major Axis(m)": 6980739.136638005,
        "Time(s)": 180
    },
    {
        "Altitude(m)": 607149.2915446144,
        "Argument of Periapsis(deg)": 0.0019795997235263173,
        "Eccentricity": 0.0,
        "Inclination(deg)": 60.0,
        "Latitude(deg)": 37.48913359768159,
        "Longitude(deg)": 100.36036221052682,
        "Mean Anomaly(deg)": 44.509316763774784,
        "RAAN(deg)": 174.99201906634488,
        "Satellite Name": "Test1 772",
        "Satellite Number": 772,
        "Semi-Major Axis(m)": 6980739.136638005,
        "Time(s)": 190
    }
]